STARLINK-35522          
1 66341U 25253Y   25323.83336806 -.00019080  00000+0 -12132-3 0  9990
2 66341  42.9990 119.6178 0001393 267.4860 193.0053 15.75050604  3341
STARLINK-35535          
1 66342U 25253Z   25323.83336806 -.00002310  00000+0 -11928-4 0  9992
2 66342  42.9990 119.5721 0001989 270.2173 207.5309 15.75040236  3249
STARLINK-35467          
1 66343U 25253AA  25323.83336806 -.00004669  00000+0 -27288-4 0  9998
2 66343  42.9986 119.5766 0001522 262.7993 213.0259 15.75050823  3242
STARLINK-35511          
1 66344U 25253AB  25323.83336806 -.00027419  00000+0 -17588-3 0  9998
2 66344  42.9988 119.5532 0001750 275.1219 210.2971 15.75049653  3247
STARLINK-35440          
1 66345U 25253AC  25323.83336806 -.00000269  00000+0  13603-5 0  9998
2 66345  42.9987 119.5604 0001598 277.9804 203.6053 15.75041493  3248
STARLINK-35482          
1 66346U 25253AD  25323.83336806  .00006798  00000+0  47329-4 0  9992
2 66346  42.9986 119.5567 0001581 273.5180 209.9779 15.75037819  3349
STARLINK-35438          
1 66347U 25253AE  25323.83336806 -.00031075  00000+0 -19980-3 0  9992
2 66347  42.9986 119.5468 0001800 276.1154 211.2193 15.75052139  3241
STARLINK-35849          
1 66348U 25254A   25323.26624356 -.00023183  00000+0 -11296-3 0  9994
2 66348  53.1574  31.5228 0002644 347.9292  12.1667 15.81104221  3143
STARLINK-35848          
1 66349U 25254B   25323.00002315 -.01575447  00000+0 -90618-2 0  9992
2 66349  53.1572  32.7574 0000882 103.1144 228.1629 15.80987728  3102
STARLINK-35829          
1 66350U 25254C   25323.00002315 -.00969737  00000+0 -57543-2 0  9992
2 66350  53.1566  32.7374 0033249 324.5580  12.7197 15.78751630  3106
STARLINK-35828          
1 66351U 25254D   25323.58116966 -.00472608  00000+0 -25914-2 0  9997
2 66351  53.1571  29.9299 0001265  42.1675 317.9444 15.80303040  2035
STARLINK-35850          
1 66352U 25254E   25323.00002315 -.01486802  00000+0 -85826-2 0  9997
2 66352  53.1575  32.7691 0016619 332.3437 351.7620 15.80376535  3051
