CCSDS_OMM_VERS = 2.0
CREATION_DATE  = 
ORIGINATOR     = 

OBJECT_NAME    = STARLINK-35522
OBJECT_ID      = 2025-253Y
CENTER_NAME    = EARTH
REF_FRAME      = TEME
TIME_SYSTEM    = UTC
MEAN_ELEMENT_THEORY = SGP/SGP4

EPOCH          = 2025-11-19T20:00:03.000384
MEAN_MOTION    = 15.75050604
ECCENTRICITY   = .0001393
INCLINATION    = 42.9990
RA_OF_ASC_NODE = 119.6178
ARG_OF_PERICENTER = 267.4860
MEAN_ANOMALY   = 193.0053

EPHEMERIS_TYPE = 0
CLASSIFICATION_TYPE = U
NORAD_CAT_ID   = 66341
ELEMENT_SET_NO = 999
REV_AT_EPOCH   = 334
BSTAR          = -.12132E-3
MEAN_MOTION_DOT = -.1908E-3
MEAN_MOTION_DDOT = 0

CCSDS_OMM_VERS = 2.0
CREATION_DATE  = 
ORIGINATOR     = 

OBJECT_NAME    = STARLINK-35535
OBJECT_ID      = 2025-253Z
CENTER_NAME    = EARTH
REF_FRAME      = TEME
TIME_SYSTEM    = UTC
MEAN_ELEMENT_THEORY = SGP/SGP4

EPOCH          = 2025-11-19T20:00:03.000384
MEAN_MOTION    = 15.75040236
ECCENTRICITY   = .0001989
INCLINATION    = 42.9990
RA_OF_ASC_NODE = 119.5721
ARG_OF_PERICENTER = 270.2173
MEAN_ANOMALY   = 207.5309

EPHEMERIS_TYPE = 0
CLASSIFICATION_TYPE = U
NORAD_CAT_ID   = 66342
ELEMENT_SET_NO = 999
REV_AT_EPOCH   = 324
BSTAR          = -.11928E-4
MEAN_MOTION_DOT = -.231E-4
MEAN_MOTION_DDOT = 0

CCSDS_OMM_VERS = 2.0
CREATION_DATE  = 
ORIGINATOR     = 

OBJECT_NAME    = STARLINK-35467
OBJECT_ID      = 2025-253AA
CENTER_NAME    = EARTH
REF_FRAME      = TEME
TIME_SYSTEM    = UTC
MEAN_ELEMENT_THEORY = SGP/SGP4

EPOCH          = 2025-11-19T20:00:03.000384
MEAN_MOTION    = 15.75050823
ECCENTRICITY   = .0001522
INCLINATION    = 42.9986
RA_OF_ASC_NODE = 119.5766
ARG_OF_PERICENTER = 262.7993
MEAN_ANOMALY   = 213.0259

EPHEMERIS_TYPE = 0
CLASSIFICATION_TYPE = U
NORAD_CAT_ID   = 66343
ELEMENT_SET_NO = 999
REV_AT_EPOCH   = 324
BSTAR          = -.27288E-4
MEAN_MOTION_DOT = -.4669E-4
MEAN_MOTION_DDOT = 0

CCSDS_OMM_VERS = 2.0
CREATION_DATE  = 
ORIGINATOR     = 

OBJECT_NAME    = STARLINK-35511
OBJECT_ID      = 2025-253AB
CENTER_NAME    = EARTH
REF_FRAME      = TEME
TIME_SYSTEM    = UTC
MEAN_ELEMENT_THEORY = SGP/SGP4

EPOCH          = 2025-11-19T20:00:03.000384
MEAN_MOTION    = 15.75049653
ECCENTRICITY   = .000175
INCLINATION    = 42.9988
RA_OF_ASC_NODE = 119.5532
ARG_OF_PERICENTER = 275.1219
MEAN_ANOMALY   = 210.2971

EPHEMERIS_TYPE = 0
CLASSIFICATION_TYPE = U
NORAD_CAT_ID   = 66344
ELEMENT_SET_NO = 999
REV_AT_EPOCH   = 324
BSTAR          = -.17588E-3
MEAN_MOTION_DOT = -.27419E-3
MEAN_MOTION_DDOT = 0

CCSDS_OMM_VERS = 2.0
CREATION_DATE  = 
ORIGINATOR     = 

OBJECT_NAME    = STARLINK-35440
OBJECT_ID      = 2025-253AC
CENTER_NAME    = EARTH
REF_FRAME      = TEME
TIME_SYSTEM    = UTC
MEAN_ELEMENT_THEORY = SGP/SGP4

EPOCH          = 2025-11-19T20:00:03.000384
MEAN_MOTION    = 15.75041493
ECCENTRICITY   = .0001598
INCLINATION    = 42.9987
RA_OF_ASC_NODE = 119.5604
ARG_OF_PERICENTER = 277.9804
MEAN_ANOMALY   = 203.6053

EPHEMERIS_TYPE = 0
CLASSIFICATION_TYPE = U
NORAD_CAT_ID   = 66345
ELEMENT_SET_NO = 999
REV_AT_EPOCH   = 324
BSTAR          = .13603E-5
MEAN_MOTION_DOT = -.269E-5
MEAN_MOTION_DDOT = 0

CCSDS_OMM_VERS = 2.0
CREATION_DATE  = 
ORIGINATOR     = 

OBJECT_NAME    = STARLINK-35482
OBJECT_ID      = 2025-253AD
CENTER_NAME    = EARTH
REF_FRAME      = TEME
TIME_SYSTEM    = UTC
MEAN_ELEMENT_THEORY = SGP/SGP4

EPOCH          = 2025-11-19T20:00:03.000384
MEAN_MOTION    = 15.75037819
ECCENTRICITY   = .0001581
INCLINATION    = 42.9986
RA_OF_ASC_NODE = 119.5567
ARG_OF_PERICENTER = 273.5180
MEAN_ANOMALY   = 209.9779

EPHEMERIS_TYPE = 0
CLASSIFICATION_TYPE = U
NORAD_CAT_ID   = 66346
ELEMENT_SET_NO = 999
REV_AT_EPOCH   = 334
BSTAR          = .47329E-4
MEAN_MOTION_DOT = .6798E-4
MEAN_MOTION_DDOT = 0

CCSDS_OMM_VERS = 2.0
CREATION_DATE  = 
ORIGINATOR     = 

OBJECT_NAME    = STARLINK-35438
OBJECT_ID      = 2025-253AE
CENTER_NAME    = EARTH
REF_FRAME      = TEME
TIME_SYSTEM    = UTC
MEAN_ELEMENT_THEORY = SGP/SGP4

EPOCH          = 2025-11-19T20:00:03.000384
MEAN_MOTION    = 15.75052139
ECCENTRICITY   = .00018
INCLINATION    = 42.9986
RA_OF_ASC_NODE = 119.5468
ARG_OF_PERICENTER = 276.1154
MEAN_ANOMALY   = 211.2193

EPHEMERIS_TYPE = 0
CLASSIFICATION_TYPE = U
NORAD_CAT_ID   = 66347
ELEMENT_SET_NO = 999
REV_AT_EPOCH   = 324
BSTAR          = -.1998E-3
MEAN_MOTION_DOT = -.31075E-3
MEAN_MOTION_DDOT = 0

CCSDS_OMM_VERS = 2.0
CREATION_DATE  = 
ORIGINATOR     = 

OBJECT_NAME    = STARLINK-35849
OBJECT_ID      = 2025-254A
CENTER_NAME    = EARTH
REF_FRAME      = TEME
TIME_SYSTEM    = UTC
MEAN_ELEMENT_THEORY = SGP/SGP4

EPOCH          = 2025-11-19T06:23:23.443584
MEAN_MOTION    = 15.81104221
ECCENTRICITY   = .00026445
INCLINATION    = 53.1574
RA_OF_ASC_NODE = 31.5228
ARG_OF_PERICENTER = 347.9292
MEAN_ANOMALY   = 12.1667

EPHEMERIS_TYPE = 0
CLASSIFICATION_TYPE = U
NORAD_CAT_ID   = 66348
ELEMENT_SET_NO = 999
REV_AT_EPOCH   = 314
BSTAR          = -.11296005E-3
MEAN_MOTION_DOT = -.23183E-3
MEAN_MOTION_DDOT = 0

CCSDS_OMM_VERS = 2.0
CREATION_DATE  = 
ORIGINATOR     = 

OBJECT_NAME    = STARLINK-35848
OBJECT_ID      = 2025-254B
CENTER_NAME    = EARTH
REF_FRAME      = TEME
TIME_SYSTEM    = UTC
MEAN_ELEMENT_THEORY = SGP/SGP4

EPOCH          = 2025-11-19T00:00:02.000160
MEAN_MOTION    = 15.80987728
ECCENTRICITY   = .00008829
INCLINATION    = 53.1572
RA_OF_ASC_NODE = 32.7574
ARG_OF_PERICENTER = 103.1144
MEAN_ANOMALY   = 228.1629

EPHEMERIS_TYPE = 0
CLASSIFICATION_TYPE = U
NORAD_CAT_ID   = 66349
ELEMENT_SET_NO = 999
REV_AT_EPOCH   = 310
BSTAR          = -.90618096E-2
MEAN_MOTION_DOT = -.1575447E-1
MEAN_MOTION_DDOT = 0

CCSDS_OMM_VERS = 2.0
CREATION_DATE  = 
ORIGINATOR     = 

OBJECT_NAME    = STARLINK-35829
OBJECT_ID      = 2025-254C
CENTER_NAME    = EARTH
REF_FRAME      = TEME
TIME_SYSTEM    = UTC
MEAN_ELEMENT_THEORY = SGP/SGP4

EPOCH          = 2025-11-19T00:00:02.000160
MEAN_MOTION    = 15.78751630
ECCENTRICITY   = .00332499
INCLINATION    = 53.1566
RA_OF_ASC_NODE = 32.7374
ARG_OF_PERICENTER = 324.5580
MEAN_ANOMALY   = 12.7197

EPHEMERIS_TYPE = 0
CLASSIFICATION_TYPE = U
NORAD_CAT_ID   = 66350
ELEMENT_SET_NO = 999
REV_AT_EPOCH   = 310
BSTAR          = -.57542982E-2
MEAN_MOTION_DOT = -.969737E-2
MEAN_MOTION_DDOT = 0

CCSDS_OMM_VERS = 2.0
CREATION_DATE  = 
ORIGINATOR     = 

OBJECT_NAME    = STARLINK-35828
OBJECT_ID      = 2025-254D
CENTER_NAME    = EARTH
REF_FRAME      = TEME
TIME_SYSTEM    = UTC
MEAN_ELEMENT_THEORY = SGP/SGP4

EPOCH          = 2025-11-19T13:56:53.058624
MEAN_MOTION    = 15.80303040
ECCENTRICITY   = .0001265
INCLINATION    = 53.1571
RA_OF_ASC_NODE = 29.9299
ARG_OF_PERICENTER = 42.1675
MEAN_ANOMALY   = 317.9444

EPHEMERIS_TYPE = 0
CLASSIFICATION_TYPE = U
NORAD_CAT_ID   = 66351
ELEMENT_SET_NO = 999
REV_AT_EPOCH   = 203
BSTAR          = -.25914E-2
MEAN_MOTION_DOT = -.472608E-2
MEAN_MOTION_DDOT = 0

CCSDS_OMM_VERS = 2.0
CREATION_DATE  = 
ORIGINATOR     = 

OBJECT_NAME    = STARLINK-35850
OBJECT_ID      = 2025-254E
CENTER_NAME    = EARTH
REF_FRAME      = TEME
TIME_SYSTEM    = UTC
MEAN_ELEMENT_THEORY = SGP/SGP4

EPOCH          = 2025-11-19T00:00:02.000160
MEAN_MOTION    = 15.80376535
ECCENTRICITY   = .0016619
INCLINATION    = 53.1575
RA_OF_ASC_NODE = 32.7691
ARG_OF_PERICENTER = 332.3437
MEAN_ANOMALY   = 351.7620

EPHEMERIS_TYPE = 0
CLASSIFICATION_TYPE = U
NORAD_CAT_ID   = 66352
ELEMENT_SET_NO = 999
REV_AT_EPOCH   = 305
BSTAR          = -.85826362E-2
MEAN_MOTION_DOT = -.1486802E-1
MEAN_MOTION_DDOT = 0

